{"type":"FeatureCollection","features":[{"type":"Feature","geometry":{"type":"Polygon","coordinates":[[[104.12173508800004,15.563130354000066],[103.98900059900006,15.406978390000063],[104.09177321600004,15.356065168000043],[103.99500690100007,15.289530260000049],[104.02038686600008,15.043633834000048],[103.90335724000005,14.843794208000077],[104.04720569300008,14.675904813000045],[104.05712228100003,14.343440557000065],[104.53335304300003,14.354527418000032],[104.65124347000005,14.422034974000042],[104.90710547700007,14.399177843000075],[104.81646226100008,14.551461410000059],[104.87672584500007,14.699785501000065],[104.80537650400004,14.897779771000046],[104.68395334200005,14.952470714000071],[104.73656220400005,15.164193884000042],[104.60910997300005,15.282055916000047],[104.40672898900004,15.289305787000046],[104.25114096600004,15.373104587000057],[104.12173508800004,15.563130354000066]]]},"properties":{"Shape_Leng":6.35489288403,"Shape_Area":0.74614018201,"ADM1_EN":"Si Sa Ket","ADM1_TH":"ศรีสะเกษ","ADM1_PCODE":"TH33","ADM1_REF":"","ADM1ALT1EN":"","ADM1ALT2EN":"","ADM1ALT1TH":"","ADM1ALT2TH":"","ADM0_EN":"Thailand","ADM0_TH":"ประเทศไทย","ADM0_PCODE":"TH","date":"2019-02-18T00:00:00.000Z","validOn":"2019-02-21T00:00:00.000Z","validTo":"1899-11-30T00:00:00.000Z"}}]}