{"type":"FeatureCollection","features":[{"type":"Feature","geometry":{"type":"Polygon","coordinates":[[[104.79760925600004,14.810341085000061],[104.71685514400008,14.859372436000058],[104.61286029500008,14.86787825700003],[104.60569155800005,14.816978324000047],[104.58489280400005,14.787850941000045],[104.64252130900007,14.788606392000077],[104.73980374600006,14.705671038000048],[104.83797212400003,14.739614919000076],[104.81794224800007,14.776988454000048],[104.79760925600004,14.810341085000061]]]},"properties":{"Shape_Leng":0.966961899058,"Shape_Area":0.0214228371151,"ADM2_EN":"Benchalak","ADM2_TH":"เบญจลักษ์","ADM2_PCODE":"TH3319","ADM2_REF":"","ADM2ALT1EN":"","ADM2ALT2EN":"","ADM2ALT1TH":"","ADM2ALT2TH":"","ADM1_EN":"Si Sa Ket","ADM1_TH":"ศรีสะเกษ","ADM1_PCODE":"TH33","ADM0_EN":"Thailand","ADM0_TH":"ประเทศไทย","ADM0_PCODE":"TH","date":"2019-02-18T00:00:00.000Z","validOn":"2019-02-21T00:00:00.000Z","validTo":"1899-11-30T00:00:00.000Z"}},{"type":"Feature","geometry":{"type":"Polygon","coordinates":[[[104.11439532500003,15.281854687000077],[104.06399142100008,15.34950810500004],[104.01524377900006,15.289547106000043],[104.09621298100006,15.276429241000073],[104.11439532500003,15.281854687000077]]]},"properties":{"Shape_Leng":0.35809444886,"Shape_Area":0.00455578039133,"ADM2_EN":"Bueng Bun","ADM2_TH":"บึงบูรพ์","ADM2_PCODE":"TH3311","ADM2_REF":"","ADM2ALT1EN":"","ADM2ALT2EN":"","ADM2ALT1TH":"","ADM2ALT2TH":"","ADM1_EN":"Si Sa Ket","ADM1_TH":"ศรีสะเกษ","ADM1_PCODE":"TH33","ADM0_EN":"Thailand","ADM0_TH":"ประเทศไทย","ADM0_PCODE":"TH","date":"2019-02-18T00:00:00.000Z","validOn":"2019-02-21T00:00:00.000Z","validTo":"1899-11-30T00:00:00.000Z"}},{"type":"Feature","geometry":{"type":"Polygon","coordinates":[[[104.05175455100004,15.131823348000069],[103.99957753500007,15.137293796000051],[104.02038686600008,15.043633834000048],[103.95600923900008,14.937722488000077],[104.09484664300004,14.938202029000024],[104.09619798900007,15.058561179000037],[104.05175455100004,15.131823348000069]]]},"properties":{"Shape_Leng":0.945954433773,"Shape_Area":0.0178388804148,"ADM2_EN":"Huai Thap Than","ADM2_TH":"ห้วยทับทัน","ADM2_PCODE":"TH3312","ADM2_REF":"","ADM2ALT1EN":"","ADM2ALT2EN":"","ADM2ALT1TH":"","ADM2ALT2TH":"","ADM1_EN":"Si Sa Ket","ADM1_TH":"ศรีสะเกษ","ADM1_PCODE":"TH33","ADM0_EN":"Thailand","ADM0_TH":"ประเทศไทย","ADM0_PCODE":"TH","date":"2019-02-18T00:00:00.000Z","validOn":"2019-02-21T00:00:00.000Z","validTo":"1899-11-30T00:00:00.000Z"}},{"type":"Feature","geometry":{"type":"Polygon","coordinates":[[[104.58489280400005,14.787850941000045],[104.48849831300004,14.749871528000028],[104.54250706800008,14.680991033000055],[104.53732497600004,14.543060212000057],[104.49270048600005,14.482248801000026],[104.49824920000003,14.373393718000045],[104.58168670300006,14.356429405000029],[104.65124347000005,14.422034974000042],[104.75218835100009,14.40279881500004],[104.80676164400006,14.437040460000048],[104.90710547700007,14.399177843000075],[104.88580950400006,14.427106512000023],[104.82854610000004,14.44275125400003],[104.86200566600007,14.499078134000058],[104.81646226100008,14.551461410000059],[104.84836659000007,14.659076233000064],[104.89047839200003,14.651406331000032],[104.83797212400003,14.739614919000076],[104.73980374600006,14.705671038000048],[104.64252130900007,14.788606392000077],[104.58489280400005,14.787850941000045]]]},"properties":{"Shape_Leng":2.38153628185,"Shape_Area":0.115300806219,"ADM2_EN":"Kantharalak","ADM2_TH":"กันทรลักษ์","ADM2_PCODE":"TH3304","ADM2_REF":"","ADM2ALT1EN":"","ADM2ALT2EN":"","ADM2ALT1TH":"","ADM2ALT2TH":"","ADM1_EN":"Si Sa Ket","ADM1_TH":"ศรีสะเกษ","ADM1_PCODE":"TH33","ADM0_EN":"Thailand","ADM0_TH":"ประเทศไทย","ADM0_PCODE":"TH","date":"2019-02-18T00:00:00.000Z","validOn":"2019-02-21T00:00:00.000Z","validTo":"1899-11-30T00:00:00.000Z"}},{"type":"Feature","geometry":{"type":"Polygon","coordinates":[[[104.69044941200008,15.22524984100005],[104.60910997300005,15.282055916000047],[104.48280729500004,15.267853125000045],[104.43171981300009,15.150708955000027],[104.47485281600007,15.13328337300004],[104.45616226200008,15.008703880000041],[104.49565358100006,14.970071978000021],[104.62300964000008,15.005519269000047],[104.67199106500004,15.021854965000045],[104.68617225300005,15.07066756000006],[104.71420010500009,15.182596922000073],[104.69044941200008,15.22524984100005]]]},"properties":{"Shape_Leng":1.74916015622,"Shape_Area":0.0606942014907,"ADM2_EN":"Kanthararom","ADM2_TH":"กันทรารมย์","ADM2_PCODE":"TH3303","ADM2_REF":"","ADM2ALT1EN":"","ADM2ALT2EN":"","ADM2ALT1TH":"","ADM2ALT2TH":"","ADM1_EN":"Si Sa Ket","ADM1_TH":"ศรีสะเกษ","ADM1_PCODE":"TH33","ADM0_EN":"Thailand","ADM0_TH":"ประเทศไทย","ADM0_PCODE":"TH","date":"2019-02-18T00:00:00.000Z","validOn":"2019-02-21T00:00:00.000Z","validTo":"1899-11-30T00:00:00.000Z"}},{"type":"Feature","geometry":{"type":"Polygon","coordinates":[[[104.29340360800006,14.887320812000041],[104.13756972200008,14.899961311000027],[104.12815984300005,14.773725114000058],[103.99938704300007,14.747853317000022],[104.00414033100009,14.72095702100006],[104.05103883600003,14.63684904300004],[104.05727489400005,14.621943053000052],[104.19187901900005,14.630616289000045],[104.24778494900005,14.579368871000042],[104.25567640700007,14.501712797000039],[104.28811152400004,14.516130834000023],[104.31333778200008,14.648453262000032],[104.29340360800006,14.887320812000041]]]},"properties":{"Shape_Leng":1.59073745459,"Shape_Area":0.0645685786145,"ADM2_EN":"Khukhan","ADM2_TH":"ขุขันธ์","ADM2_PCODE":"TH3305","ADM2_REF":"","ADM2ALT1EN":"","ADM2ALT2EN":"","ADM2ALT1TH":"","ADM2ALT2TH":"","ADM1_EN":"Si Sa Ket","ADM1_TH":"ศรีสะเกษ","ADM1_PCODE":"TH33","ADM0_EN":"Thailand","ADM0_TH":"ประเทศไทย","ADM0_PCODE":"TH","date":"2019-02-18T00:00:00.000Z","validOn":"2019-02-21T00:00:00.000Z","validTo":"1899-11-30T00:00:00.000Z"}},{"type":"Feature","geometry":{"type":"Polygon","coordinates":[[[104.49824920000003,14.373393718000045],[104.49270048600005,14.482248801000026],[104.53732497600004,14.543060212000057],[104.54250706800008,14.680991033000055],[104.48849831300004,14.749871528000028],[104.41469778900006,14.736067603000038],[104.39565505300004,14.68291679300006],[104.31333778200008,14.648453262000032],[104.28811152400004,14.516130834000023],[104.25567640700007,14.501712797000039],[104.27679124200006,14.408464510000044],[104.33387835100007,14.36862949600004],[104.47343424200005,14.346903463000046],[104.49824920000003,14.373393718000045]]]},"properties":{"Shape_Leng":1.33008797479,"Shape_Area":0.0791108053392,"ADM2_EN":"Khun Han","ADM2_TH":"ขุนหาญ","ADM2_PCODE":"TH3308","ADM2_REF":"","ADM2ALT1EN":"","ADM2ALT2EN":"","ADM2ALT1TH":"","ADM2ALT2TH":"","ADM1_EN":"Si Sa Ket","ADM1_TH":"ศรีสะเกษ","ADM1_PCODE":"TH33","ADM0_EN":"Thailand","ADM0_TH":"ประเทศไทย","ADM0_PCODE":"TH","date":"2019-02-18T00:00:00.000Z","validOn":"2019-02-21T00:00:00.000Z","validTo":"1899-11-30T00:00:00.000Z"}},{"type":"Feature","geometry":{"type":"Polygon","coordinates":[[[104.09391720800005,15.163167189000035],[103.99682811900004,15.252214137000067],[103.98432693200004,15.230795191000027],[103.97347169300008,15.161487949000048],[103.99957753500007,15.137293796000051],[104.05175455100004,15.131823348000069],[104.09391720800005,15.163167189000035]]]},"properties":{"Shape_Leng":0.486048276062,"Shape_Area":0.00867596177503,"ADM2_EN":"Mueang Chan","ADM2_TH":"เมืองจันทร์","ADM2_PCODE":"TH3318","ADM2_REF":"","ADM2ALT1EN":"","ADM2ALT2EN":"","ADM2ALT1TH":"","ADM2ALT2TH":"","ADM1_EN":"Si Sa Ket","ADM1_TH":"ศรีสะเกษ","ADM1_PCODE":"TH33","ADM0_EN":"Thailand","ADM0_TH":"ประเทศไทย","ADM0_PCODE":"TH","date":"2019-02-18T00:00:00.000Z","validOn":"2019-02-21T00:00:00.000Z","validTo":"1899-11-30T00:00:00.000Z"}},{"type":"Feature","geometry":{"type":"Polygon","coordinates":[[[104.43171981300009,15.150708955000027],[104.38167477900004,15.160036260000027],[104.29021354500009,15.247629577000055],[104.24533577300008,15.226511735000031],[104.26826777900004,15.109168629000067],[104.21769352600006,15.051570297000069],[104.30074577700009,14.962955613000076],[104.42456704300008,14.97748795800004],[104.45616226200008,15.008703880000041],[104.47485281600007,15.13328337300004],[104.43171981300009,15.150708955000027]]]},"properties":{"Shape_Leng":1.23356349285,"Shape_Area":0.0454163183273,"ADM2_EN":"Mueang Si Sa Ket","ADM2_TH":"เมืองศรีสะเกษ","ADM2_PCODE":"TH3301","ADM2_REF":"","ADM2ALT1EN":"","ADM2ALT2EN":"","ADM2ALT1TH":"","ADM2ALT2TH":"","ADM1_EN":"Si Sa Ket","ADM1_TH":"ศรีสะเกษ","ADM1_PCODE":"TH33","ADM0_EN":"Thailand","ADM0_TH":"ประเทศไทย","ADM0_PCODE":"TH","date":"2019-02-18T00:00:00.000Z","validOn":"2019-02-21T00:00:00.000Z","validTo":"1899-11-30T00:00:00.000Z"}},{"type":"Feature","geometry":{"type":"Polygon","coordinates":[[[104.62300964000008,15.005519269000047],[104.49565358100006,14.970071978000021],[104.45616226200008,15.008703880000041],[104.42456704300008,14.97748795800004],[104.44620967700007,14.860834607000072],[104.48159476300003,14.887083395000047],[104.60569155800005,14.816978324000047],[104.61286029500008,14.86787825700003],[104.59114808000004,14.951328829000033],[104.62300964000008,15.005519269000047]]]},"properties":{"Shape_Leng":1.16526725761,"Shape_Area":0.0230798212902,"ADM2_EN":"Nam Kliang","ADM2_TH":"น้ำเกลี้ยง","ADM2_PCODE":"TH3315","ADM2_REF":"","ADM2ALT1EN":"","ADM2ALT2EN":"","ADM2ALT1TH":"","ADM2ALT2TH":"","ADM1_EN":"Si Sa Ket","ADM1_TH":"ศรีสะเกษ","ADM1_PCODE":"TH33","ADM0_EN":"Thailand","ADM0_TH":"ประเทศไทย","ADM0_PCODE":"TH","date":"2019-02-18T00:00:00.000Z","validOn":"2019-02-21T00:00:00.000Z","validTo":"1899-11-30T00:00:00.000Z"}},{"type":"Feature","geometry":{"type":"Polygon","coordinates":[[[104.67199106500004,15.021854965000045],[104.62300964000008,15.005519269000047],[104.59114808000004,14.951328829000033],[104.61286029500008,14.86787825700003],[104.71685514400008,14.859372436000058],[104.79760925600004,14.810341085000061],[104.81447908500007,14.834552081000027],[104.80537650400004,14.897779771000046],[104.68395334200005,14.952470714000071],[104.67199106500004,15.021854965000045]]]},"properties":{"Shape_Leng":1.00746579702,"Shape_Area":0.0230628249394,"ADM2_EN":"Non Khun","ADM2_TH":"โนนคูณ","ADM2_PCODE":"TH3313","ADM2_REF":"","ADM2ALT1EN":"","ADM2ALT2EN":"","ADM2ALT1TH":"","ADM2ALT2TH":"","ADM1_EN":"Si Sa Ket","ADM1_TH":"ศรีสะเกษ","ADM1_PCODE":"TH33","ADM0_EN":"Thailand","ADM0_TH":"ประเทศไทย","ADM0_PCODE":"TH","date":"2019-02-18T00:00:00.000Z","validOn":"2019-02-21T00:00:00.000Z","validTo":"1899-11-30T00:00:00.000Z"}},{"type":"Feature","geometry":{"type":"Polygon","coordinates":[[[104.44620967700007,14.860834607000072],[104.42456704300008,14.97748795800004],[104.30074577700009,14.962955613000076],[104.30057914800005,14.887146132000055],[104.39938989800004,14.83118528600005],[104.44620967700007,14.860834607000072]]]},"properties":{"Shape_Leng":0.61201455777,"Shape_Area":0.0141609575716,"ADM2_EN":"Phayu","ADM2_TH":"พยุห์","ADM2_PCODE":"TH3320","ADM2_REF":"","ADM2ALT1EN":"","ADM2ALT2EN":"","ADM2ALT1TH":"","ADM2ALT2TH":"","ADM1_EN":"Si Sa Ket","ADM1_TH":"ศรีสะเกษ","ADM1_PCODE":"TH33","ADM0_EN":"Thailand","ADM0_TH":"ประเทศไทย","ADM0_PCODE":"TH","date":"2019-02-18T00:00:00.000Z","validOn":"2019-02-21T00:00:00.000Z","validTo":"1899-11-30T00:00:00.000Z"}},{"type":"Feature","geometry":{"type":"Polygon","coordinates":[[[104.01524377900006,15.289547106000043],[103.99682811900004,15.252214137000067],[104.09391720800005,15.163167189000035],[104.12782613600007,15.263140772000042],[104.09621298100006,15.276429241000073],[104.01524377900006,15.289547106000043]]]},"properties":{"Shape_Leng":0.54635476843,"Shape_Area":0.00958059630963,"ADM2_EN":"Pho Si Suwan","ADM2_TH":"โพธิ์ศรีสุวรรณ","ADM2_PCODE":"TH3321","ADM2_REF":"","ADM2ALT1EN":"","ADM2ALT2EN":"","ADM2ALT1TH":"","ADM2ALT2TH":"","ADM1_EN":"Si Sa Ket","ADM1_TH":"ศรีสะเกษ","ADM1_PCODE":"TH33","ADM0_EN":"Thailand","ADM0_TH":"ประเทศไทย","ADM0_PCODE":"TH","date":"2019-02-18T00:00:00.000Z","validOn":"2019-02-21T00:00:00.000Z","validTo":"1899-11-30T00:00:00.000Z"}},{"type":"Feature","geometry":{"type":"Polygon","coordinates":[[[104.30057914800005,14.887146132000055],[104.29340360800006,14.887320812000041],[104.31333778200008,14.648453262000032],[104.39565505300004,14.68291679300006],[104.41469778900006,14.736067603000038],[104.39938989800004,14.83118528600005],[104.30057914800005,14.887146132000055]]]},"properties":{"Shape_Leng":0.851080825799,"Shape_Area":0.0226506781672,"ADM2_EN":"Phrai Bueng","ADM2_TH":"ไพรบึง","ADM2_PCODE":"TH3306","ADM2_REF":"","ADM2ALT1EN":"","ADM2ALT2EN":"","ADM2ALT1TH":"","ADM2ALT2TH":"","ADM1_EN":"Si Sa Ket","ADM1_TH":"ศรีสะเกษ","ADM1_PCODE":"TH33","ADM0_EN":"Thailand","ADM0_TH":"ประเทศไทย","ADM0_PCODE":"TH","date":"2019-02-18T00:00:00.000Z","validOn":"2019-02-21T00:00:00.000Z","validTo":"1899-11-30T00:00:00.000Z"}},{"type":"Feature","geometry":{"type":"Polygon","coordinates":[[[104.25567640700007,14.501712797000039],[104.24778494900005,14.579368871000042],[104.19187901900005,14.630616289000045],[104.05727489400005,14.621943053000052],[104.03241897700008,14.545514096000034],[104.05712228100003,14.343440557000065],[104.21633600700005,14.366608762000055],[104.27679124200006,14.408464510000044],[104.25567640700007,14.501712797000039]]]},"properties":{"Shape_Leng":1.17493105769,"Shape_Area":0.0517493479675,"ADM2_EN":"Phu Sing","ADM2_TH":"ภูสิงห์","ADM2_PCODE":"TH3317","ADM2_REF":"","ADM2ALT1EN":"","ADM2ALT2EN":"","ADM2ALT1TH":"","ADM2ALT2TH":"","ADM1_EN":"Si Sa Ket","ADM1_TH":"ศรีสะเกษ","ADM1_PCODE":"TH33","ADM0_EN":"Thailand","ADM0_TH":"ประเทศไทย","ADM0_PCODE":"TH","date":"2019-02-18T00:00:00.000Z","validOn":"2019-02-21T00:00:00.000Z","validTo":"1899-11-30T00:00:00.000Z"}},{"type":"Feature","geometry":{"type":"Polygon","coordinates":[[[104.13756972200008,14.899961311000027],[104.12534540400009,14.94471984200004],[104.09484664300004,14.938202029000024],[103.95600923900008,14.937722488000077],[103.92813397800006,14.903384493000033],[103.92325141000003,14.892818347000059],[103.90335724000005,14.843794208000077],[103.99444119800006,14.800155061000055],[103.99938704300007,14.747853317000022],[104.12815984300005,14.773725114000058],[104.13756972200008,14.899961311000027]]]},"properties":{"Shape_Leng":1.03634816278,"Shape_Area":0.0319221807063,"ADM2_EN":"Prang Ku","ADM2_TH":"ปรางค์กู่","ADM2_PCODE":"TH3307","ADM2_REF":"","ADM2ALT1EN":"","ADM2ALT2EN":"","ADM2ALT1TH":"","ADM2ALT2TH":"","ADM1_EN":"Si Sa Ket","ADM1_TH":"ศรีสะเกษ","ADM1_PCODE":"TH33","ADM0_EN":"Thailand","ADM0_TH":"ประเทศไทย","ADM0_PCODE":"TH","date":"2019-02-18T00:00:00.000Z","validOn":"2019-02-21T00:00:00.000Z","validTo":"1899-11-30T00:00:00.000Z"}},{"type":"Feature","geometry":{"type":"Polygon","coordinates":[[[104.23286340900006,15.403150238000023],[104.17112029300006,15.472411446000024],[104.06434955900005,15.412428000000034],[104.02037911900004,15.470515704000036],[103.98900059900006,15.406978390000063],[104.05695877000005,15.40448918900006],[104.06399142100008,15.34950810500004],[104.11439532500003,15.281854687000077],[104.24533577300008,15.226511735000031],[104.29021354500009,15.247629577000055],[104.34548914200008,15.34188105100003],[104.23286340900006,15.403150238000023]]]},"properties":{"Shape_Leng":1.39179176391,"Shape_Area":0.0421264296723,"ADM2_EN":"Rasi Salai","ADM2_TH":"ราษีไศล","ADM2_PCODE":"TH3309","ADM2_REF":"","ADM2ALT1EN":"","ADM2ALT2EN":"","ADM2ALT1TH":"","ADM2ALT2TH":"","ADM1_EN":"Si Sa Ket","ADM1_TH":"ศรีสะเกษ","ADM1_PCODE":"TH33","ADM0_EN":"Thailand","ADM0_TH":"ประเทศไทย","ADM0_PCODE":"TH","date":"2019-02-18T00:00:00.000Z","validOn":"2019-02-21T00:00:00.000Z","validTo":"1899-11-30T00:00:00.000Z"}},{"type":"Feature","geometry":{"type":"Polygon","coordinates":[[[104.60569155800005,14.816978324000047],[104.48159476300003,14.887083395000047],[104.44620967700007,14.860834607000072],[104.39938989800004,14.83118528600005],[104.41469778900006,14.736067603000038],[104.48849831300004,14.749871528000028],[104.58489280400005,14.787850941000045],[104.60569155800005,14.816978324000047]]]},"properties":{"Shape_Leng":0.826131485151,"Shape_Area":0.0182323619245,"ADM2_EN":"Si Rattana","ADM2_TH":"ศรีรัตนะ","ADM2_PCODE":"TH3314","ADM2_REF":"","ADM2ALT1EN":"","ADM2ALT2EN":"","ADM2ALT1TH":"","ADM2ALT2TH":"","ADM1_EN":"Si Sa Ket","ADM1_TH":"ศรีสะเกษ","ADM1_PCODE":"TH33","ADM0_EN":"Thailand","ADM0_TH":"ประเทศไทย","ADM0_PCODE":"TH","date":"2019-02-18T00:00:00.000Z","validOn":"2019-02-21T00:00:00.000Z","validTo":"1899-11-30T00:00:00.000Z"}},{"type":"Feature","geometry":{"type":"Polygon","coordinates":[[[104.12173508800004,15.563130354000066],[104.08552934900007,15.550517764000062],[104.05997604300006,15.502419313000075],[104.02037911900004,15.470515704000036],[104.06434955900005,15.412428000000034],[104.17112029300006,15.472411446000024],[104.12173508800004,15.563130354000066]]]},"properties":{"Shape_Leng":0.618022355749,"Shape_Area":0.0119001402116,"ADM2_EN":"Sila Lat","ADM2_TH":"ศิลาลาด","ADM2_PCODE":"TH3322","ADM2_REF":"","ADM2ALT1EN":"","ADM2ALT2EN":"","ADM2ALT1TH":"","ADM2ALT2TH":"","ADM1_EN":"Si Sa Ket","ADM1_TH":"ศรีสะเกษ","ADM1_PCODE":"TH33","ADM0_EN":"Thailand","ADM0_TH":"ประเทศไทย","ADM0_PCODE":"TH","date":"2019-02-18T00:00:00.000Z","validOn":"2019-02-21T00:00:00.000Z","validTo":"1899-11-30T00:00:00.000Z"}},{"type":"Feature","geometry":{"type":"Polygon","coordinates":[[[104.24533577300008,15.226511735000031],[104.11439532500003,15.281854687000077],[104.09621298100006,15.276429241000073],[104.12782613600007,15.263140772000042],[104.09391720800005,15.163167189000035],[104.05175455100004,15.131823348000069],[104.09619798900007,15.058561179000037],[104.09484664300004,14.938202029000024],[104.12534540400009,14.94471984200004],[104.11621420500006,14.983991768000067],[104.21769352600006,15.051570297000069],[104.26826777900004,15.109168629000067],[104.24533577300008,15.226511735000031]]]},"properties":{"Shape_Leng":1.41398509983,"Shape_Area":0.0368683084609,"ADM2_EN":"Uthumphon Phisai","ADM2_TH":"อุทุมพรพิสัย","ADM2_PCODE":"TH3310","ADM2_REF":"","ADM2ALT1EN":"","ADM2ALT2EN":"","ADM2ALT1TH":"","ADM2ALT2TH":"","ADM1_EN":"Si Sa Ket","ADM1_TH":"ศรีสะเกษ","ADM1_PCODE":"TH33","ADM0_EN":"Thailand","ADM0_TH":"ประเทศไทย","ADM0_PCODE":"TH","date":"2019-02-18T00:00:00.000Z","validOn":"2019-02-21T00:00:00.000Z","validTo":"1899-11-30T00:00:00.000Z"}},{"type":"Feature","geometry":{"type":"Polygon","coordinates":[[[104.21769352600006,15.051570297000069],[104.11621420500006,14.983991768000067],[104.12534540400009,14.94471984200004],[104.13756972200008,14.899961311000027],[104.29340360800006,14.887320812000041],[104.30057914800005,14.887146132000055],[104.30074577700009,14.962955613000076],[104.21769352600006,15.051570297000069]]]},"properties":{"Shape_Leng":0.90514840402,"Shape_Area":0.0243034392821,"ADM2_EN":"Wang Hin","ADM2_TH":"วังหิน","ADM2_PCODE":"TH3316","ADM2_REF":"","ADM2ALT1EN":"","ADM2ALT2EN":"","ADM2ALT1TH":"","ADM2ALT2TH":"","ADM1_EN":"Si Sa Ket","ADM1_TH":"ศรีสะเกษ","ADM1_PCODE":"TH33","ADM0_EN":"Thailand","ADM0_TH":"ประเทศไทย","ADM0_PCODE":"TH","date":"2019-02-18T00:00:00.000Z","validOn":"2019-02-21T00:00:00.000Z","validTo":"1899-11-30T00:00:00.000Z"}},{"type":"Feature","geometry":{"type":"Polygon","coordinates":[[[104.40672898900004,15.289305787000046],[104.34548914200008,15.34188105100003],[104.29021354500009,15.247629577000055],[104.38167477900004,15.160036260000027],[104.43171981300009,15.150708955000027],[104.48280729500004,15.267853125000045],[104.40672898900004,15.289305787000046]]]},"properties":{"Shape_Leng":0.71786327197,"Shape_Area":0.0189189258193,"ADM2_EN":"Yang Chum Noi","ADM2_TH":"ยางชุมน้อย","ADM2_PCODE":"TH3302","ADM2_REF":"","ADM2ALT1EN":"","ADM2ALT2EN":"","ADM2ALT1TH":"","ADM2ALT2TH":"","ADM1_EN":"Si Sa Ket","ADM1_TH":"ศรีสะเกษ","ADM1_PCODE":"TH33","ADM0_EN":"Thailand","ADM0_TH":"ประเทศไทย","ADM0_PCODE":"TH","date":"2019-02-18T00:00:00.000Z","validOn":"2019-02-21T00:00:00.000Z","validTo":"1899-11-30T00:00:00.000Z"}}]}